start=new Date('2022-11-11T00:00:00.000Z').valueOf();
sats=[{"MEAN_ANOMALY":"309.0760","MEAN_ELEMENT_THEORY":"SGP4","PERIOD":"95.592","EPOCH":"2022-11-10T10:09:56.639808","REF_FRAME":"TEME","TLE_LINE2":"2 47991  53.0548 317.1818 0001935  51.0401 309.0760 15.06398416 91902","NORAD_CAT_ID":"47991","TLE_LINE1":"1 47991U 21024Q   22314.42357222  .00000048  00000-0  22107-4 0  9996","INCLINATION":"53.0548","SEMIMAJOR_AXIS":"6925.353","CENTER_NAME":"EARTH","EPHEMERIS_TYPE":"0","PERIAPSIS":"545.878","ELEMENT_SET_NO":"999","TIME_SYSTEM":"UTC","DECAY_DATE":null,"RA_OF_ASC_NODE":"317.1818","ECCENTRICITY":"0.00019350","APOAPSIS":"548.558","ARG_OF_PERICENTER":"51.0401","COUNTRY_CODE":"US","MEAN_MOTION":"15.06398416","SITE":"AFETR","RCS_SIZE":"LARGE","OBJECT_NAME":"STARLINK-2279","LAUNCH_DATE":"2021-03-24","MEAN_MOTION_DOT":"0.00000048","GP_ID":"217342374","MEAN_MOTION_DDOT":"0.0000000000000","OBJECT_ID":"2021-024Q","CLASSIFICATION_TYPE":"U","REV_AT_EPOCH":"9190","OBJECT_TYPE":"PAYLOAD","BSTAR":"0.00002210700000","FILE":"3650583"},{"PERIOD":"95.594","REF_FRAME":"TEME","MEAN_ELEMENT_THEORY":"SGP4","EPOCH":"2022-11-10T17:02:00.104352","MEAN_ANOMALY":"306.0111","EPHEMERIS_TYPE":"0","CENTER_NAME":"EARTH","SEMIMAJOR_AXIS":"6925.438","INCLINATION":"53.0550","NORAD_CAT_ID":"47992","TLE_LINE1":"1 47992U 21024R   22314.70972343  .00008887  00000-0  61524-3 0  9999","TLE_LINE2":"2 47992  53.0550 310.9715 0001978  54.1061 306.0111 15.06370827 92506","DECAY_DATE":null,"TIME_SYSTEM":"UTC","ELEMENT_SET_NO":"999","PERIAPSIS":"545.933","RA_OF_ASC_NODE":"310.9715","COUNTRY_CODE":"US","ARG_OF_PERICENTER":"54.1061","APOAPSIS":"548.673","ECCENTRICITY":"0.00019780","MEAN_MOTION":"15.06370827","GP_ID":"217370002","OBJECT_ID":"2021-024R","MEAN_MOTION_DDOT":"0.0000000000000","MEAN_MOTION_DOT":"0.00008887","LAUNCH_DATE":"2021-03-24","OBJECT_NAME":"STARLINK-2229","RCS_SIZE":"LARGE","SITE":"AFETR","FILE":"3650843","BSTAR":"0.00061524000000","OBJECT_TYPE":"PAYLOAD","REV_AT_EPOCH":"9250","CLASSIFICATION_TYPE":"U"},{"RA_OF_ASC_NODE":"352.0403","DECAY_DATE":null,"ELEMENT_SET_NO":"999","TIME_SYSTEM":"UTC","PERIAPSIS":"546.169","EPHEMERIS_TYPE":"0","NORAD_CAT_ID":"47993","TLE_LINE1":"1 47993U 21024S   22314.45167696 -.00003189  00000-0 -19533-3 0  9994","SEMIMAJOR_AXIS":"6925.367","INCLINATION":"53.0541","CENTER_NAME":"EARTH","TLE_LINE2":"2 47993  53.0541 352.0403 0001536  59.7718 300.3423 15.06393862 91436","MEAN_ELEMENT_THEORY":"SGP4","PERIOD":"95.593","REF_FRAME":"TEME","EPOCH":"2022-11-10T10:50:24.889344","MEAN_ANOMALY":"300.3423","FILE":"3650596","OBJECT_TYPE":"PAYLOAD","BSTAR":"-0.00019533000000","CLASSIFICATION_TYPE":"U","REV_AT_EPOCH":"9143","OBJECT_ID":"2021-024S","GP_ID":"217342391","MEAN_MOTION_DDOT":"0.0000000000000","MEAN_MOTION_DOT":"-0.00003189","OBJECT_NAME":"STARLINK-2273","LAUNCH_DATE":"2021-03-24","RCS_SIZE":"LARGE","SITE":"AFETR","MEAN_MOTION":"15.06393862","ARG_OF_PERICENTER":"59.7718","COUNTRY_CODE":"US","ECCENTRICITY":"0.00015360","APOAPSIS":"548.296"},{"DECAY_DATE":null,"PERIAPSIS":"546.006","ELEMENT_SET_NO":"999","TIME_SYSTEM":"UTC","RA_OF_ASC_NODE":"6.4269","PERIOD":"95.593","MEAN_ELEMENT_THEORY":"SGP4","EPOCH":"2022-11-10T14:07:28.394112","REF_FRAME":"TEME","MEAN_ANOMALY":"291.1433","TLE_LINE1":"1 47994U 21024T   22314.58852308  .00003584  00000-0  25946-3 0  9992","NORAD_CAT_ID":"47994","CENTER_NAME":"EARTH","SEMIMAJOR_AXIS":"6925.386","INCLINATION":"53.0553","EPHEMERIS_TYPE":"0","TLE_LINE2":"2 47994  53.0553   6.4269 0001797  68.9748 291.1433 15.06387942 91704","OBJECT_NAME":"STARLINK-2290","LAUNCH_DATE":"2021-03-24","GP_ID":"217368505","MEAN_MOTION_DOT":"0.00003584","MEAN_MOTION_DDOT":"0.0000000000000","OBJECT_ID":"2021-024T","SITE":"AFETR","RCS_SIZE":"LARGE","OBJECT_TYPE":"PAYLOAD","BSTAR":"0.00025946000000","FILE":"3650843","CLASSIFICATION_TYPE":"U","REV_AT_EPOCH":"9170","ARG_OF_PERICENTER":"68.9748","COUNTRY_CODE":"US","ECCENTRICITY":"0.00017970","APOAPSIS":"548.495","MEAN_MOTION":"15.06387942"},{"MEAN_MOTION":"15.06385043","ARG_OF_PERICENTER":"55.3074","COUNTRY_CODE":"US","ECCENTRICITY":"0.00016600","APOAPSIS":"548.409","OBJECT_TYPE":"PAYLOAD","BSTAR":"-0.00020901000000","FILE":"3650630","CLASSIFICATION_TYPE":"U","REV_AT_EPOCH":"9171","OBJECT_NAME":"STARLINK-2309","LAUNCH_DATE":"2021-03-24","MEAN_MOTION_DOT":"-0.00003392","GP_ID":"217343508","MEAN_MOTION_DDOT":"0.0000000000000","OBJECT_ID":"2021-024U","SITE":"AFETR","RCS_SIZE":"LARGE","TLE_LINE1":"1 47995U 21024U   22314.46463735 -.00003392  00000-0 -20901-3 0  9997","NORAD_CAT_ID":"47995","SEMIMAJOR_AXIS":"6925.394","INCLINATION":"53.0551","CENTER_NAME":"EARTH","EPHEMERIS_TYPE":"0","TLE_LINE2":"2 47995  53.0551 332.2858 0001660  55.3074 304.8072 15.06385043 91710","EPOCH":"2022-11-10T11:09:04.667040","PERIOD":"95.593","REF_FRAME":"TEME","MEAN_ELEMENT_THEORY":"SGP4","MEAN_ANOMALY":"304.8072","RA_OF_ASC_NODE":"332.2858","DECAY_DATE":null,"PERIAPSIS":"546.110","ELEMENT_SET_NO":"999","TIME_SYSTEM":"UTC"},{"RA_OF_ASC_NODE":"255.6031","DECAY_DATE":null,"TIME_SYSTEM":"UTC","ELEMENT_SET_NO":"999","PERIAPSIS":"545.919","EPHEMERIS_TYPE":"0","SEMIMAJOR_AXIS":"6925.428","INCLINATION":"53.0555","CENTER_NAME":"EARTH","TLE_LINE1":"1 47996U 21024V   22314.83829456 -.00004039  00000-0 -25258-3 0  9994","NORAD_CAT_ID":"47996","TLE_LINE2":"2 47996  53.0555 255.6031 0001984  43.7054 316.4092 15.06373983 93346","PERIOD":"95.594","REF_FRAME":"TEME","MEAN_ELEMENT_THEORY":"SGP4","EPOCH":"2022-11-10T20:07:08.649984","MEAN_ANOMALY":"316.4092","FILE":"3650843","BSTAR":"-0.00025258000000","OBJECT_TYPE":"PAYLOAD","REV_AT_EPOCH":"9334","CLASSIFICATION_TYPE":"U","OBJECT_ID":"2021-024V","GP_ID":"217369503","MEAN_MOTION_DDOT":"0.0000000000000","MEAN_MOTION_DOT":"-0.00004039","LAUNCH_DATE":"2021-03-24","OBJECT_NAME":"STARLINK-2260","RCS_SIZE":"LARGE","SITE":"AFETR","MEAN_MOTION":"15.06373983","COUNTRY_CODE":"US","ARG_OF_PERICENTER":"43.7054","APOAPSIS":"548.667","ECCENTRICITY":"0.00019840"},{"RA_OF_ASC_NODE":"6.7879","ELEMENT_SET_NO":"999","TIME_SYSTEM":"UTC","PERIAPSIS":"546.163","DECAY_DATE":null,"TLE_LINE2":"2 47997  53.0558   6.7879 0001609  85.7718 274.3455 15.06379059 91233","EPHEMERIS_TYPE":"0","TLE_LINE1":"1 47997U 21024W   22314.50374241 -.00006233  00000-0 -40013-3 0  9990","NORAD_CAT_ID":"47997","SEMIMAJOR_AXIS":"6925.413","CENTER_NAME":"EARTH","INCLINATION":"53.0558","MEAN_ANOMALY":"274.3455","PERIOD":"95.593","REF_FRAME":"TEME","MEAN_ELEMENT_THEORY":"SGP4","EPOCH":"2022-11-10T12:05:23.344224","CLASSIFICATION_TYPE":"U","REV_AT_EPOCH":"9123","FILE":"3650599","OBJECT_TYPE":"PAYLOAD","BSTAR":"-0.00040013000000","RCS_SIZE":"LARGE","SITE":"AFETR","GP_ID":"217342545","OBJECT_ID":"2021-024W","MEAN_MOTION_DDOT":"0.0000000000000","MEAN_MOTION_DOT":"-0.00006233","OBJECT_NAME":"STARLINK-2266","LAUNCH_DATE":"2021-03-24","MEAN_MOTION":"15.06379059","ECCENTRICITY":"0.00016090","APOAPSIS":"548.392","ARG_OF_PERICENTER":"85.7718","COUNTRY_CODE":"US"},{"RA_OF_ASC_NODE":"340.8241","PERIAPSIS":"546.041","TIME_SYSTEM":"UTC","ELEMENT_SET_NO":"999","DECAY_DATE":null,"TLE_LINE2":"2 47998  53.0564 340.8241 0001804  53.1730 306.9425 15.06374927 92088","SEMIMAJOR_AXIS":"6925.425","INCLINATION":"53.0564","CENTER_NAME":"EARTH","NORAD_CAT_ID":"47998","TLE_LINE1":"1 47998U 21024X   22314.77702320 -.00004457  00000-0 -28066-3 0  9993","EPHEMERIS_TYPE":"0","MEAN_ANOMALY":"306.9425","REF_FRAME":"TEME","PERIOD":"95.594","EPOCH":"2022-11-10T18:38:54.804480","MEAN_ELEMENT_THEORY":"SGP4","REV_AT_EPOCH":"9208","CLASSIFICATION_TYPE":"U","BSTAR":"-0.00028066000000","OBJECT_TYPE":"PAYLOAD","FILE":"3650843","SITE":"AFETR","RCS_SIZE":"LARGE","LAUNCH_DATE":"2021-03-24","OBJECT_NAME":"STARLINK-2296","MEAN_MOTION_DDOT":"0.0000000000000","GP_ID":"217369006","MEAN_MOTION_DOT":"-0.00004457","OBJECT_ID":"2021-024X","MEAN_MOTION":"15.06374927","APOAPSIS":"548.540","ECCENTRICITY":"0.00018040","COUNTRY_CODE":"US","ARG_OF_PERICENTER":"53.1730"},{"PERIAPSIS":"546.264","ELEMENT_SET_NO":"999","TIME_SYSTEM":"UTC","DECAY_DATE":null,"RA_OF_ASC_NODE":"310.7846","MEAN_ANOMALY":"299.1090","MEAN_ELEMENT_THEORY":"SGP4","PERIOD":"95.592","EPOCH":"2022-11-10T17:27:08.160192","REF_FRAME":"TEME","TLE_LINE2":"2 47999  53.0542 310.7846 0001361  61.0035 299.1090 15.06402272 92497","NORAD_CAT_ID":"47999","TLE_LINE1":"1 47999U 21024Y   22314.72717778  .00000156  00000-0  29355-4 0  9995","SEMIMAJOR_AXIS":"6925.342","INCLINATION":"53.0542","CENTER_NAME":"EARTH","EPHEMERIS_TYPE":"0","SITE":"AFETR","RCS_SIZE":"LARGE","OBJECT_NAME":"STARLINK-2218","LAUNCH_DATE":"2021-03-24","GP_ID":"217369256","OBJECT_ID":"2021-024Y","MEAN_MOTION_DDOT":"0.0000000000000","MEAN_MOTION_DOT":"0.00000156","CLASSIFICATION_TYPE":"U","REV_AT_EPOCH":"9249","OBJECT_TYPE":"PAYLOAD","BSTAR":"0.00002935500000","FILE":"3650843","ECCENTRICITY":"0.00013610","APOAPSIS":"548.149","ARG_OF_PERICENTER":"61.0035","COUNTRY_CODE":"US","MEAN_MOTION":"15.06402272"},{"ECCENTRICITY":"0.00020560","APOAPSIS":"548.687","ARG_OF_PERICENTER":"36.2273","COUNTRY_CODE":"US","MEAN_MOTION":"15.06383953","SITE":"AFETR","RCS_SIZE":"LARGE","OBJECT_NAME":"STARLINK-2270","LAUNCH_DATE":"2021-03-24","GP_ID":"217370003","MEAN_MOTION_DDOT":"0.0000000000000","OBJECT_ID":"2021-024Z","MEAN_MOTION_DOT":"-0.00002492","CLASSIFICATION_TYPE":"U","REV_AT_EPOCH":"9270","OBJECT_TYPE":"PAYLOAD","BSTAR":"-0.00014851000000","FILE":"3650843","MEAN_ANOMALY":"323.8855","PERIOD":"95.593","MEAN_ELEMENT_THEORY":"SGP4","REF_FRAME":"TEME","EPOCH":"2022-11-10T15:47:02.031360","TLE_LINE2":"2 48000  53.0534 296.3255 0002056  36.2273 323.8855 15.06383953 92707","TLE_LINE1":"1 48000U 21024Z   22314.65766240 -.00002492  00000-0 -14851-3 0  9990","NORAD_CAT_ID":"48000","INCLINATION":"53.0534","SEMIMAJOR_AXIS":"6925.398","CENTER_NAME":"EARTH","EPHEMERIS_TYPE":"0","PERIAPSIS":"545.839","ELEMENT_SET_NO":"999","TIME_SYSTEM":"UTC","DECAY_DATE":null,"RA_OF_ASC_NODE":"296.3255"}];
